[{"OBJECT_NAME":"FORMOSAT 7-4","OBJECT_ID":"2019-036M","EPOCH":"2026-03-09T23:18:59.695200","MEAN_MOTION":14.96015542,"ECCENTRICITY":0.00014118,"INCLINATION":23.9994,"RA_OF_ASC_NODE":43.1446,"ARG_OF_PERICENTER":104.6737,"MEAN_ANOMALY":255.392,"EPHEMERIS_TYPE":0,"CLASSIFICATION_TYPE":"U","NORAD_CAT_ID":44350,"ELEMENT_SET_NO":999,"REV_AT_EPOCH":36919,"BSTAR":0.00031042546,"MEAN_MOTION_DOT":3.87e-5,"MEAN_MOTION_DDOT":0},{"OBJECT_NAME":"STARLINK-6231","OBJECT_ID":"2023-078N","EPOCH":"2026-03-09T21:23:57.873984","MEAN_MOTION":14.98330383,"ECCENTRICITY":0.00028313,"INCLINATION":70.0003,"RA_OF_ASC_NODE":323.953,"ARG_OF_PERICENTER":273.9274,"MEAN_ANOMALY":86.1561,"EPHEMERIS_TYPE":0,"CLASSIFICATION_TYPE":"U","NORAD_CAT_ID":56779,"ELEMENT_SET_NO":999,"REV_AT_EPOCH":15319,"BSTAR":9.082071e-6,"MEAN_MOTION_DOT":1.5e-7,"MEAN_MOTION_DDOT":0}]
